satname,norad_id,inclination_deg,eccentricity,mean_motion_rev_per_day,perigee_km,apogee_km,l1,l2
STARLINK-1008,44714,53.0557,0.0001395,15.06396286,546.2568531250035,548.1890285484969,1 44714U 19074B   25348.97994842  .00001586  00000+0  12539-3 0  9997,2 44714  53.0557 206.8941 0001395  85.5377 274.5771 15.06396286335987
STARLINK-1012,44718,53.054,0.0001502,15.06391581,546.1971698518591,548.2775523099281,1 44718U 19074F   25348.89149658  .00001605  00000+0  12663-3 0  9999,2 44718  53.0540 207.2895 0001502  82.5475 277.5685 15.06391581335960
STARLINK-1017,44723,53.0495,0.0006806,15.17875734,507.5722589196048,516.9514698538069,1 44723U 19074L   25349.29274452  .00010356  00000+0  51944-3 0  9999,2 44723  53.0495 198.8869 0006806  99.8771 260.2991 15.17875734336120
STARLINK-1019,44724,53.0519,0.0004022,15.56391216,395.38614171223617,400.8369560449537,1 44724U 19074M   25349.11927360  .00026524  00000+0  37465-3 0  9990,2 44724  53.0519 193.8914 0004022 141.6529 218.4769 15.56391216336173
STARLINK-1020,44725,53.0524,0.0001166,15.06402114,546.3975839539326,548.0125737267181,1 44725U 19074N   25348.89334989  .00007856  00000+0  54566-3 0  9992,2 44725  53.0524 227.2853 0001166  99.0042 261.1079 15.06402114335685
STARLINK-1031,44736,53.048,0.00073,15.59736874,383.4783958839016,393.35756615619084,1 44736U 19074Z   25349.25141852  .00120060  00000+0  14562-2 0  9994,2 44736  53.0480 180.0537 0007300 100.0632 260.1204 15.59736874336396
STARLINK-1036,44741,53.0539,0.0001294,15.06393735,546.3346167394429,548.126901915557,1 44741U 19074AE  25349.05551366  .00002022  00000+0  15465-3 0  9994,2 44741  53.0539 226.5528 0001294  97.5830 262.5306 15.06393735335710
STARLINK-1039,44744,53.0494,0.0002989,15.15317986,517.9514934310428,522.0752077106135,1 44744U 19074AH  25349.15224600  .00007534  00000+0  41089-3 0  9990,2 44744  53.0494 241.5981 0002989  54.9836 305.1437 15.15317986335519
STARLINK-1042,44747,53.0441,0.0001739,15.45453362,428.86234022119515,431.2302263671245,1 44747U 19074AL  25348.72880748  .00018633  00000+0  39084-3 0  9990,2 44747  53.0441 141.0237 0001739 212.0738 148.0162 15.45453362336918
STARLINK-1043,44748,53.054,0.0002587,15.44255487,431.8043673852444,435.3287428046506,1 44748U 19074AM  25349.10512324  .00040717  00000+0  87615-3 0  9997,2 44748  53.0540 240.1138 0002587 113.0548 247.0730 15.44255487335536
STARLINK-1046,44751,53.0536,0.0001411,15.0638951,546.2665372460469,548.2208796819759,1 44751U 19074AQ  25349.10897183  .00002818  00000+0  20808-3 0  9991,2 44751  53.0536 246.3151 0001411  94.6685 265.4465 15.06389510335441
STARLINK-1047,44752,53.0695,0.0001482,15.30461638,473.41842578662,475.44952782414566,1 44752U 19074AR  25349.24794307  .00005398  00000+0  19272-3 0  9990,2 44752  53.0695 179.8363 0001482   0.1371 359.9628 15.30461638336401
STARLINK-1048,44753,53.0525,0.0001376,15.06377882,546.3264099627631,548.2322845415256,1 44753U 19074AS  25349.33381063  .00000532  00000+0  54621-4 0  9995,2 44753  53.0525 205.3038 0001376  88.0721 272.0426 15.06377882336034
STARLINK-1053,44758,53.0369,0.0002747,15.67560312,364.0327806304631,367.73794651701064,1 44758U 19074AX  25348.70073517  .00063918  00000+0  57687-3 0  9993,2 44758  53.0369 148.2766 0002747 184.6812 175.4178 15.67560312336797
STARLINK-1060,44765,53.0484,0.0007234,15.76831807,334.56412536710013,344.28309205578444,1 44765U 19074BE  25349.33335648  .00095992  00000+0  58036-3 0  9993,2 44765  53.0484 189.6039 0007234 144.7153 197.3249 15.76831807  5870
STARLINK-1063,44768,53.0533,0.0001322,15.06404257,546.2829815225841,548.1140402316596,1 44768U 19074BH  25349.29694406  .00003539  00000+0  25633-3 0  9994,2 44768  53.0533 245.4732 0001322  90.9791 269.1350 15.06404257335483
STARLINK-1067,44771,53.0533,0.0001429,15.09174083,537.7340000551967,539.7108384772228,1 44771U 19074BL  25349.33335648 -.00000173  00000+0  72028-5 0  9997,2 44771  53.0533 245.2924 0001429 126.4255 140.6068 15.09174083  5797
STARLINK-1068,44772,53.0545,0.0001507,15.22537115,497.15470853666557,499.22723378717365,1 44772U 19074BM  25349.33335648  .01676133  00000+0  64400-1 0  9994,2 44772  53.0545 224.7411 0001507 120.4959 120.7167 15.22537115  5799
STARLINK-1112,44925,53.0478,0.0008619,15.65561636,365.80636639998465,377.44160438660583,1 44925U 20001M   25349.33335648  .00222194  00000+0  21156-2 0  9991,2 44925  53.0478 306.2950 0008619  48.3644 290.8769 15.65561636  5944
STARLINK-1114,44927,53.0551,0.0001579,15.06407986,546.0935734340374,548.2805907791671,1 44927U 20001P   25349.31538676  .00006140  00000+0  43067-3 0  9994,2 44927  53.0551   5.3910 0001579 102.8251 257.2915 15.06407986327139
STARLINK-1123,44930,53.0554,0.000146,15.06385828,546.2438861866249,548.2661006487033,1 44930U 20001S   25349.33011638  .00004750  00000+0  33768-3 0  9996,2 44930  53.0554   5.3249 0001460  76.8610 283.2542 15.06385828327134
STARLINK-1144,44933,53.0447,0.0002823,15.75228969,342.082048901927,345.8773559921283,1 44933U 20001V   25349.33335648  .00190085  00000+0  12168-2 0  9996,2 44933  53.0447 280.6010 0002823 115.9913 113.3070 15.75228969  5924
STARLINK-1094,44941,53.0565,0.0001409,15.06389557,546.2677782925866,548.219350535639,1 44941U 20001AD  25349.27667531  .00001072  00000+0  90883-4 0  9996,2 44941  53.0565 345.5653 0001409  81.9059 278.2090 15.06389557327408
STARLINK-1122,44949,53.0562,0.0001838,15.06391326,545.9652586753418,548.5110265777721,1 44949U 20001AM  25349.36514078  .00001441  00000+0  11565-3 0  9990,2 44949  53.0562 345.1645 0001838  91.4182 268.7018 15.06391326327411
STARLINK-1080,44961,53.0568,0.0001361,15.06414833,546.2235635511079,548.1086310541941,1 44961U 20001AZ  25349.23059187  .00000965  00000+0  83646-4 0  9995,2 44961  53.0568 325.7704 0001361  88.3338 271.7807 15.06414833327688
STARLINK-1090,44968,53.0548,0.0001241,15.06392722,546.3744255256324,548.0933025740906,1 44968U 20001BG  25349.16793134  .00000411  00000+0  46499-4 0  9992,2 44968  53.0548 326.0517 0001241  99.0807 261.0322 15.06392722327671
STARLINK-1132,45044,53.0563,0.0001552,15.06385304,546.1817783412107,548.3314205144734,1 45044U 20006A   25349.26008854 -.00001258  00000+0 -65594-4 0  9991,2 45044  53.0563 285.6422 0001552  95.8086 264.3080 15.06385304324017
STARLINK-1131,45047,53.0563,0.000131,15.06382842,546.3569176861911,548.1713727862434,1 45047U 20006D   25349.10350576  .00000607  00000+0  59658-4 0  9997,2 45047  53.0563 306.8823 0001310  91.2444 268.8695 15.06382842323701
STARLINK-1134,45048,53.0365,0.000456,15.32804205,464.32880588065655,470.57198158374104,1 45048U 20006E   25349.22204449  .00015062  00000+0  47932-3 0  9990,2 45048  53.0365 276.5784 0004560   5.5123 354.5927 15.32804205324144
STARLINK-1156,45054,53.0552,0.0001604,15.06400627,546.0988106737905,548.3204618747068,1 45054U 20006L   25349.14028865  .00002511  00000+0  18744-3 0  9998,2 45054  53.0552 306.1761 0001604  96.4147 263.7025 15.06400627323718
STARLINK-1159,45057,53.0533,0.0006856,15.56822055,392.21636789277363,401.5062455709631,1 45057U 20006P   25349.32409485  .00031340  00000+0  43395-3 0  9994,2 45057  53.0533 290.8883 0006856  74.7569 285.4200 15.56822055323955
STARLINK-1166,45060,53.0556,0.0001433,15.06383308,546.2703072071454,548.2551267660328,1 45060U 20006S   25349.16609525 -.00002168  00000+0 -12677-3 0  9994,2 45060  53.0556 306.0606 0001433  86.8091 273.3062 15.06383308323722
STARLINK-1169,45061,53.0555,0.0001333,15.06388336,546.3241529209445,548.1704603770968,1 45061U 20006T   25349.30615809  .00001619  00000+0  12762-3 0  9996,2 45061  53.0555 305.4329 0001333  73.7037 286.4098 15.06388336323743
STARLINK-1171,45062,53.055,0.0012899,15.40381386,436.1817103178046,453.7839949135823,1 45062U 20006U   25349.24113685  .00058797  00000+0  14284-2 0  9994,2 45062  53.0550 293.9476 0012899  67.3291 292.9076 15.40381386323905
STARLINK-1133,45064,53.0545,0.0001266,15.06379377,546.3980080546526,548.1515223135966,1 45064U 20006W   25349.10528313 -.00000442  00000+0 -10785-4 0  9999,2 45064  53.0545 286.3345 0001266  88.4964 271.6171 15.06379377323997
STARLINK-1167,45071,53.0558,0.0001219,15.06374079,546.4467935355742,548.1352128827566,1 45071U 20006AD  25349.13108452  .00001001  00000+0  86164-4 0  9992,2 45071  53.0558 286.2162 0001219  96.7488 263.3640 15.06374079323999
STARLINK-1168,45072,53.0543,0.0001212,15.06388846,546.4063871642247,548.0850999412623,1 45072U 20006AE  25349.20110749 -.00004591  00000+0 -28962-3 0  9993,2 45072  53.0543 285.9011 0001212  80.9073 279.2053 15.06388846324005
STARLINK-1172,45074,53.055,0.0001417,15.06382808,546.2829200862543,548.2455788003454,1 45074U 20006AG  25349.21217731 -.00000904  00000+0 -41855-4 0  9996,2 45074  53.0550 285.8540 0001417  80.3033 279.8116 15.06382808324006
STARLINK-1153,45080,53.0555,0.0001355,15.06383731,546.323029042891,548.1998120148537,1 45080U 20006AN  25349.25640190 -.00001775  00000+0 -10034-3 0  9997,2 45080  53.0555 285.6536 0001355  89.7362 270.3782 15.06383731324012
STARLINK-1151,45081,53.0553,0.0001615,15.23465772,494.28621551183096,496.5063667648683,1 45081U 20006AP  25349.33335648  .01594785  00000+0  59926-1 0  9994,2 45081  53.0553 284.5635 0001615 101.9857 101.6448 15.23465772  5694
STARLINK-1185,45087,53.055,0.0001242,15.06384264,546.399652650779,548.1199212126521,1 45087U 20006AV  25349.15135105 -.00002255  00000+0 -13257-3 0  9992,2 45087  53.0550 266.1256 0001242  99.4392 260.6738 15.06384264324287
STARLINK-1183,45088,53.0542,0.0001483,15.06383049,546.2364739033073,548.2905476948108,1 45088U 20006AW  25349.04077268 -.00007056  00000+0 -45546-3 0  9996,2 45088  53.0542 266.6240 0001483  78.4401 281.6755 15.06383049324262
STARLINK-1142,45093,53.0203,0.0009316,15.93118294,287.3473672526825,299.778078176043,1 45093U 20006BB  25349.33335648  .00597980  15492-3  16638-2 0  9995,2 45093  53.0203 176.8819 0009316 228.1795 327.5727 15.93118294  5831
